[{"OBJECT_NAME":"STARLINK-30946","OBJECT_ID":"2023-183P","EPOCH":"2026-03-09T22:00:01.999584","MEAN_MOTION":15.2756105,"ECCENTRICITY":0.00013588,"INCLINATION":43.0004,"RA_OF_ASC_NODE":40.3196,"ARG_OF_PERICENTER":263.0647,"MEAN_ANOMALY":298.7187,"EPHEMERIS_TYPE":0,"CLASSIFICATION_TYPE":"U","NORAD_CAT_ID":58450,"ELEMENT_SET_NO":999,"REV_AT_EPOCH":578,"BSTAR":0.0011263703,"MEAN_MOTION_DOT":0.00030845,"MEAN_MOTION_DDOT":0},{"OBJECT_NAME":"TOMORROW-S3","OBJECT_ID":"2024-247R","EPOCH":"2026-03-09T11:56:51.820800","MEAN_MOTION":15.27672122,"ECCENTRICITY":3.967e-5,"INCLINATION":44.9999,"RA_OF_ASC_NODE":117.9871,"ARG_OF_PERICENTER":320.9462,"MEAN_ANOMALY":39.1392,"EPHEMERIS_TYPE":0,"CLASSIFICATION_TYPE":"U","NORAD_CAT_ID":62392,"ELEMENT_SET_NO":999,"REV_AT_EPOCH":6770,"BSTAR":0.00028857954,"MEAN_MOTION_DOT":7.664e-5,"MEAN_MOTION_DDOT":0}]
